{"type": "FeatureCollection", "features": [ {"type": "Feature", "properties": {"norad_id": 39634, "name": "SENTINEL-1A", "group": "resource", "lat": -62.30577246305406, "lon": 162.4497915015621, "alt_km": 703.7518424394293, "timestamp": "2025-12-19T04:59:47.957627+00:00", "meta": {"OBJECT_NAME": "SENTINEL-1A", "OBJECT_ID": "2014-016A", "EPOCH": "2025-12-18T22:56:51.022176", "MEAN_MOTION": 14.59201776, "ECCENTRICITY": 0.00012291, "INCLINATION": 98.1798, "RA_OF_ASC_NODE": 358.1061, "ARG_OF_PERICENTER": 82.7076, "MEAN_ANOMALY": 277.4264, "EPHEMERIS_TYPE": 0, "CLASSIFICATION_TYPE": "U", "NORAD_CAT_ID": 39634, "ELEMENT_SET_NO": 999, "REV_AT_EPOCH": 62373, "BSTAR": 4.4408232e-05, "MEAN_MOTION_DOT": 1.64e-06, "MEAN_MOTION_DDOT": 0}, "tle": {"line1": "1 39634U 14016A   25352.95614609  .00000164  00000+0  44408-4 0  9998", "line2": "2 39634  98.1798 358.1061 0001229  82.7076 277.4264 14.59201776623732"}}, "geometry": {"type": "Point", "coordinates": [162.4497915015621, -62.30577246305406]}}, {"type": "Feature", "properties": {"norad_id": 39731, "name": "KAZEOSAT 1", "group": "resource", "lat": 0.36095291651752365, "lon": -114.97617410720856, "alt_km": 754.4838462196358, "timestamp": "2025-12-19T04:59:47.957638+00:00", "meta": {"OBJECT_NAME": "KAZEOSAT 1", "OBJECT_ID": "2014-024A", "EPOCH": "2025-12-18T23:10:16.310784", "MEAN_MOTION": 14.42065284, "ECCENTRICITY": 0.00011534, "INCLINATION": 98.3434, "RA_OF_ASC_NODE": 64.7336, "ARG_OF_PERICENTER": 97.78, "MEAN_ANOMALY": 262.3521, "EPHEMERIS_TYPE": 0, "CLASSIFICATION_TYPE": "U", "NORAD_CAT_ID": 39731, "ELEMENT_SET_NO": 999, "REV_AT_EPOCH": 61258, "BSTAR": 2.4239836e-05, "MEAN_MOTION_DOT": 3.7e-07, "MEAN_MOTION_DDOT": 0}, "tle": {"line1": "1 39731U 14024A   25352.96546656  .00000037  00000+0  24240-4 0  9993", "line2": "2 39731  98.3434  64.7336 0001153  97.7800 262.3521 14.42065284612585"}}, "geometry": {"type": "Point", "coordinates": [-114.97617410720856, 0.36095291651752365]}}, {"type": "Feature", "properties": {"norad_id": 39766, "name": "ALOS-2", "group": "resource", "lat": -32.94125087781653, "lon": -97.21477210941667, "alt_km": 637.5347101789675, "timestamp": "2025-12-19T04:59:47.957647+00:00", "meta": {"OBJECT_NAME": "ALOS-2", "OBJECT_ID": "2014-029A", "EPOCH": "2025-12-19T00:47:22.877952", "MEAN_MOTION": 14.79465353, "ECCENTRICITY": 0.0001399, "INCLINATION": 97.9229, "RA_OF_ASC_NODE": 87.7896, "ARG_OF_PERICENTER": 102.0657, "MEAN_ANOMALY": 258.0711, "EPHEMERIS_TYPE": 0, "CLASSIFICATION_TYPE": "U", "NORAD_CAT_ID": 39766, "ELEMENT_SET_NO": 999, "REV_AT_EPOCH": 62494, "BSTAR": 0.00023634, "MEAN_MOTION_DOT": 1.714e-05, "MEAN_MOTION_DDOT": 0}, "tle": {"line1": "1 39766U 14029A   25353.03290368  .00001714  00000+0  23634-3 0  9999", "line2": "2 39766  97.9229  87.7896 0001399 102.0657 258.0711 14.79465353624945"}}, "geometry": {"type": "Point", "coordinates": [-97.21477210941667, -32.94125087781653]}}, {"type": "Feature", "properties": {"norad_id": 40010, "name": "KAZEOSAT 2", "group": "resource", "lat": -74.05976017773978, "lon": -10.481457841073377, "alt_km": 618.6003337596921, "timestamp": "2025-12-19T04:59:47.957658+00:00", "meta": {"OBJECT_NAME": "KAZEOSAT 2", "OBJECT_ID": "2014-033A", "EPOCH": "2025-12-18T22:59:50.368704", "MEAN_MOTION": 14.8517952, "ECCENTRICITY": 0.00081163, "INCLINATION": 97.5502, "RA_OF_ASC_NODE": 196.9514, "ARG_OF_PERICENTER": 184.6213, "MEAN_ANOMALY": 175.493, "EPHEMERIS_TYPE": 0, "CLASSIFICATION_TYPE": "U", "NORAD_CAT_ID": 40010, "ELEMENT_SET_NO": 999, "REV_AT_EPOCH": 62220, "BSTAR": 9.5634658e-05, "MEAN_MOTION_DOT": 7.69e-06, "MEAN_MOTION_DDOT": 0}, "tle": {"line1": "1 40010U 14033A   25352.95822186  .00000769  00000+0  95635-4 0  9997", "line2": "2 40010  97.5502 196.9514 0008116 184.6213 175.4930 14.85179520622204"}}, "geometry": {"type": "Point", "coordinates": [-10.481457841073377, -74.05976017773978]}}, {"type": "Feature", "properties": {"norad_id": 40011, "name": "HODOYOSHI-4", "group": "resource", "lat": 36.87184041188306, "lon": 176.07053456992037, "alt_km": 616.0780555291976, "timestamp": "2025-12-19T04:59:47.957667+00:00", "meta": {"OBJECT_NAME": "HODOYOSHI-4", "OBJECT_ID": "2014-033B", "EPOCH": "2025-12-18T22:22:16.458816", "MEAN_MOTION": 14.87502516, "ECCENTRICITY": 0.00236099, "INCLINATION": 97.5406, "RA_OF_ASC_NODE": 181.5102, "ARG_OF_PERICENTER": 179.9029, "MEAN_ANOMALY": 180.2197, "EPHEMERIS_TYPE": 0, "CLASSIFICATION_TYPE": "U", "NORAD_CAT_ID": 40011, "ELEMENT_SET_NO": 999, "REV_AT_EPOCH": 62200, "BSTAR": 0.0001547358, "MEAN_MOTION_DOT": 1.358e-05, "MEAN_MOTION_DDOT": 0}, "tle": {"line1": "1 40011U 14033B   25352.93213494  .00001358  00000+0  15474-3 0  9999", "line2": "2 40011  97.5406 181.5102 0023609 179.9029 180.2197 14.87502516622001"}}, "geometry": {"type": "Point", "coordinates": [176.07053456992037, 36.87184041188306]}}, {"type": "Feature", "properties": {"norad_id": 40013, "name": "DEIMOS-2", "group": "resource", "lat": -37.23330376260272, "lon": -125.37660354417598, "alt_km": 595.7680006935507, "timestamp": "2025-12-19T04:59:47.957678+00:00", "meta": {"OBJECT_NAME": "DEIMOS-2", "OBJECT_ID": "2014-033D", "EPOCH": "2025-12-18T22:43:51.110112", "MEAN_MOTION": 14.93000264, "ECCENTRICITY": 0.00013584, "INCLINATION": 97.6067, "RA_OF_ASC_NODE": 228.542, "ARG_OF_PERICENTER": 107.263, "MEAN_ANOMALY": 252.8739, "EPHEMERIS_TYPE": 0, "CLASSIFICATION_TYPE": "U", "NORAD_CAT_ID": 40013, "ELEMENT_SET_NO": 999, "REV_AT_EPOCH": 61082, "BSTAR": 0.0002427649, "MEAN_MOTION_DOT": 2.469e-05, "MEAN_MOTION_DDOT": 0}, "tle": {"line1": "1 40013U 14033D   25352.94711933  .00002469  00000+0  24276-3 0  9997", "line2": "2 40013  97.6067 228.5420 0001358 107.2630 252.8739 14.93000264610826"}}, "geometry": {"type": "Point", "coordinates": [-125.37660354417598, -37.23330376260272]}}, {"type": "Feature", "properties": {"norad_id": 40015, "name": "HODOYOSHI-3", "group": "resource", "lat": -78.1878772068133, "lon": -61.04238557899096, "alt_km": 603.0421303832163, "timestamp": "2025-12-19T04:59:47.957688+00:00", "meta": {"OBJECT_NAME": "HODOYOSHI-3", "OBJECT_ID": "2014-033F", "EPOCH": "2025-12-18T22:58:21.507168", "MEAN_MOTION": 14.84827132, "ECCENTRICITY": 0.00321499, "INCLINATION": 97.6203, "RA_OF_ASC_NODE": 158.522, "ARG_OF_PERICENTER": 226.7251, "MEAN_ANOMALY": 133.1281, "EPHEMERIS_TYPE": 0, "CLASSIFICATION_TYPE": "U", "NORAD_CAT_ID": 40015, "ELEMENT_SET_NO": 999, "REV_AT_EPOCH": 62087, "BSTAR": 0.00015428862, "MEAN_MOTION_DOT": 1.27e-05, "MEAN_MOTION_DDOT": 0}, "tle": {"line1": "1 40015U 14033F   25352.95719337  .00001270  00000+0  15429-3 0  9995", "line2": "2 40015  97.6203 158.5220 0032149 226.7251 133.1281 14.84827132620878"}}, "geometry": {"type": "Point", "coordinates": [-61.04238557899096, -78.1878772068133]}}, {"type": "Feature", "properties": {"norad_id": 40053, "name": "SPOT 7", "group": "resource", "lat": 35.71536956389359, "lon": -118.99514128904637, "alt_km": 687.8091611861055, "timestamp": "2025-12-19T04:59:47.957699+00:00", "meta": {"OBJECT_NAME": "SPOT 7", "OBJECT_ID": "2014-034A", "EPOCH": "2025-12-18T23:24:31.813344", "MEAN_MOTION": 14.60741449, "ECCENTRICITY": 0.00015442, "INCLINATION": 98.0905, "RA_OF_ASC_NODE": 54.9074, "ARG_OF_PERICENTER": 83.7619, "MEAN_ANOMALY": 276.3758, "EPHEMERIS_TYPE": 0, "CLASSIFICATION_TYPE": "U", "NORAD_CAT_ID": 40053, "ELEMENT_SET_NO": 999, "REV_AT_EPOCH": 61082, "BSTAR": 0.00010171102, "MEAN_MOTION_DOT": 4.5e-06, "MEAN_MOTION_DDOT": 0}, "tle": {"line1": "1 40053U 14034A   25352.97536821  .00000450  00000+0  10171-3 0  9993", "line2": "2 40053  98.0905  54.9074 0001544  83.7619 276.3758 14.60741449610827"}}, "geometry": {"type": "Point", "coordinates": [-118.99514128904637, 35.71536956389359]}}, {"type": "Feature", "properties": {"norad_id": 40072, "name": "SKYSAT-B", "group": "resource", "lat": -22.40650440616489, "lon": -59.267185979976205, "alt_km": 615.7331774585382, "timestamp": "2025-12-19T04:59:47.957709+00:00", "meta": {"OBJECT_NAME": "SKYSAT-B", "OBJECT_ID": "2014-037D", "EPOCH": "2025-12-18T19:24:39.195072", "MEAN_MOTION": 14.87348069, "ECCENTRICITY": 0.00065151, "INCLINATION": 98.3619, "RA_OF_ASC_NODE": 296.8355, "ARG_OF_PERICENTER": 133.0045, "MEAN_ANOMALY": 227.1716, "EPHEMERIS_TYPE": 0, "CLASSIFICATION_TYPE": "U", "NORAD_CAT_ID": 40072, "ELEMENT_SET_NO": 999, "REV_AT_EPOCH": 61914, "BSTAR": 0.00015223593, "MEAN_MOTION_DOT": 1.314e-05, "MEAN_MOTION_DDOT": 0}, "tle": {"line1": "1 40072U 14037D   25352.80878698  .00001314  00000+0  15224-3 0  9994", "line2": "2 40072  98.3619 296.8355 0006515 133.0045 227.1716 14.87348069619149"}}, "geometry": {"type": "Point", "coordinates": [-59.267185979976205, -22.40650440616489]}}, {"type": "Feature", "properties": {"norad_id": 40115, "name": "WORLDVIEW-3 (WV-3)", "group": "resource", "lat": -1.7106588660665896, "lon": -114.8289932300333, "alt_km": 617.0315385603499, "timestamp": "2025-12-19T04:59:47.957719+00:00", "meta": {"OBJECT_NAME": "WORLDVIEW-3 (WV-3)", "OBJECT_ID": "2014-048A", "EPOCH": "2025-12-18T21:42:40.567680", "MEAN_MOTION": 14.84661456, "ECCENTRICITY": 0.00017113, "INCLINATION": 97.8774, "RA_OF_ASC_NODE": 65.108, "ARG_OF_PERICENTER": 138.8396, "MEAN_ANOMALY": 221.2947, "EPHEMERIS_TYPE": 0, "CLASSIFICATION_TYPE": "U", "NORAD_CAT_ID": 40115, "ELEMENT_SET_NO": 999, "REV_AT_EPOCH": 61515, "BSTAR": 0.00010574139, "MEAN_MOTION_DOT": 8.41e-06, "MEAN_MOTION_DDOT": 0}, "tle": {"line1": "1 40115U 14048A   25352.90463620  .00000841  00000+0  10574-3 0  9997", "line2": "2 40115  97.8774  65.1080 0001711 138.8396 221.2947 14.84661456615153"}}, "geometry": {"type": "Point", "coordinates": [-114.8289932300333, -1.7106588660665896]}}]}